[{"OBJECT_NAME":"STARLINK-2095","OBJECT_ID":"2021-012BM","EPOCH":"2026-03-10T00:00:02.999808","MEAN_MOTION":15.74200805,"ECCENTRICITY":0.00059989,"INCLINATION":53.0265,"RA_OF_ASC_NODE":345.7098,"ARG_OF_PERICENTER":141.0946,"MEAN_ANOMALY":123.1256,"EPHEMERIS_TYPE":0,"CLASSIFICATION_TYPE":"U","NORAD_CAT_ID":47679,"ELEMENT_SET_NO":999,"REV_AT_EPOCH":596,"BSTAR":0.0014953733,"MEAN_MOTION_DOT":0.00224612,"MEAN_MOTION_DDOT":0},{"OBJECT_NAME":"STARLINK-36376","OBJECT_ID":"2026-018B","EPOCH":"2026-03-09T17:30:39.403872","MEAN_MOTION":15.75213715,"ECCENTRICITY":0.0001634,"INCLINATION":97.2829,"RA_OF_ASC_NODE":134.5344,"ARG_OF_PERICENTER":58.5033,"MEAN_ANOMALY":301.6391,"EPHEMERIS_TYPE":0,"CLASSIFICATION_TYPE":"U","NORAD_CAT_ID":67590,"ELEMENT_SET_NO":999,"REV_AT_EPOCH":731,"BSTAR":0.0016024739,"MEAN_MOTION_DOT":0.00246161,"MEAN_MOTION_DDOT":0}]
